[{"OBJECT_NAME":"STARLINK-30260","OBJECT_ID":"2023-115D","EPOCH":"2026-03-09T04:20:53.578752","MEAN_MOTION":15.27565637,"ECCENTRICITY":0.00012494,"INCLINATION":43.001,"RA_OF_ASC_NODE":4.4709,"ARG_OF_PERICENTER":260.151,"MEAN_ANOMALY":99.9201,"EPHEMERIS_TYPE":0,"CLASSIFICATION_TYPE":"U","NORAD_CAT_ID":57524,"ELEMENT_SET_NO":999,"REV_AT_EPOCH":14227,"BSTAR":0.00014594615,"MEAN_MOTION_DOT":3.754e-5,"MEAN_MOTION_DDOT":0},{"OBJECT_NAME":"REAL","OBJECT_ID":"2025-154G","EPOCH":"2026-03-09T17:20:09.670560","MEAN_MOTION":15.28408058,"ECCENTRICITY":0.00018528,"INCLINATION":97.4133,"RA_OF_ASC_NODE":137.2581,"ARG_OF_PERICENTER":118.5876,"MEAN_ANOMALY":241.555,"EPHEMERIS_TYPE":0,"CLASSIFICATION_TYPE":"U","NORAD_CAT_ID":64875,"ELEMENT_SET_NO":999,"REV_AT_EPOCH":3483,"BSTAR":0.0008290401,"MEAN_MOTION_DOT":0.00022901,"MEAN_MOTION_DDOT":0}]
